{
  "type": "FeatureCollection",
  "features": [
    {
      "type": "Feature",
      "properties": {
        "name": "Karachi",
        "note": "Simplified boundary for visualization purposes only; not an official/cadastral boundary."
      },
      "geometry": {
        "type": "Polygon",
        "coordinates": [
          [
            [
              66.7,
              24.76
            ],
            [
              66.73,
              24.72
            ],
            [
              66.95,
              24.75
            ],
            [
              67.1,
              24.74
            ],
            [
              67.25,
              24.75
            ],
            [
              67.34,
              24.79
            ],
            [
              67.36,
              24.86
            ],
            [
              67.32,
              24.94
            ],
            [
              67.2,
              25.02
            ],
            [
              67.1,
              25.12
            ],
            [
              66.95,
              25.1
            ],
            [
              66.82,
              25.04
            ],
            [
              66.73,
              24.96
            ],
            [
              66.69,
              24.86
            ],
            [
              66.7,
              24.76
            ]
          ]
        ]
      }
    }
  ]
}